STARLINK-37374          
1 69153U 26111F   26169.32204170  .00028243  00000+0  51376-3 0  9991
2 69153  53.1603 147.8959 0000777  95.2301 264.8797 15.49323601  4414
STARLINK-37235          
1 69154U 26111G   26169.66597964  .00042723  00000+0  77114-3 0  9992
2 69154  53.1607 146.4923 0001232  90.2846 269.8304 15.49341218  4469
STARLINK-37329          
1 69155U 26111H   26169.75002315 -.00501154  00000+0 -94895-2 0  9998
2 69155  53.1604 144.4110 0001508  76.3070 141.2074 15.49614661  5804
STARLINK-37345          
1 69156U 26111J   26169.75002315 -.02534947  00000+0 -47024-1 0  9998
2 69156  53.1602 144.3299 0001449 107.4801 150.1234 15.51840284  5804
STARLINK-37353          
1 69157U 26111K   26169.75002315 -.02527722  00000+0 -46213-1 0  9991
2 69157  53.1599 144.3169 0001356 109.6671 154.3732 15.52231795  5803
STARLINK-37363          
1 69158U 26111L   26169.75002315 -.01731031  00000+0 -31088-1 0  9995
2 69158  53.1606 144.3225 0002019 102.4760 158.1040 15.52532402  5806
STARLINK-37343          
1 69159U 26111M   26169.32218249  .00060434  00000+0  10867-2 0  9996
2 69159  53.1602 147.8935 0001478  83.5505 276.5673 15.49297321  4410
STARLINK-37328          
1 69160U 26111N   26169.75002315 -.02010178  00000+0 -35938-1 0  9999
2 69160  53.1602 144.2733 0001637  95.9189 189.5209 15.52617590  5801
STARLINK-37311          
1 69161U 26111P   26169.75002315 -.02442818  00000+0 -39866-1 0  9994
2 69161  53.1592 144.3174 0001279 104.4603 159.4927 15.55800289  5804
STARLINK-36286          
1 69162U 26111Q   26169.75002315  .00083046  00000+0  14876-2 0  9990
2 69162  53.1603 144.7557 0001887 111.4831 295.8928 15.49265374  5802
STARLINK-37196          
1 69163U 26111R   26169.75002315 -.02486026  00000+0 -38953-1 0  9991
2 69163  53.1594 144.3097 0001283 109.4038 158.3059 15.56955230  5806
STARLINK-36288          
1 69164U 26111S   26169.75002315  .00080595  00000+0  14437-2 0  9991
2 69164  53.1604 144.7263 0000909 119.9777 301.8661 15.49279467  5805
STARLINK-37445          
1 69165U 26111T   26169.75002315  .00069051  00000+0  12390-2 0  9992
2 69165  53.1603 144.8302 0000656  70.3125 300.1843 15.49300320  5803
STARLINK-37491          
1 69166U 26111U   26169.75002315 -.00725382  00000+0 -13861-1 0  9994
2 69166  53.1604 144.4914 0000786  57.9725 119.6106 15.49779907  5807
STARLINK-37474          
1 69167U 26111V   26169.75002315 -.01296701  00000+0 -19133-1 0  9992
2 69167  53.1598 144.3046 0001094 106.4587 163.3320 15.57464486  5800
STARLINK-37469          
1 69168U 26111W   26169.66159914  .00021358  00000+0  39082-3 0  9999
2 69168  53.1598 146.4588 0001645 103.5750 256.5442 15.49323071  4463
STARLINK-37515          
1 69169U 26111X   26169.75002315  .00069999  00000+0  12571-2 0  9998
2 69169  53.1603 144.5827 0000873  98.4106  33.9176 15.49270577  5807
STARLINK-37437          
1 69170U 26111Y   26169.75002315 -.00853445  00000+0 -16512-1 0  9997
2 69170  53.1604 144.3942 0001030  31.6918 193.3666 15.49823702  5801
STARLINK-37392          
1 69171U 26111Z   26169.75002315 -.01760574  00000+0 -33067-1 0  9993
2 69171  53.1604 144.4829 0000964 107.2879  73.6062 15.51362958  5802
STARLINK-37472          
1 69172U 26111AA  26169.75002315  .00066995  00000+0  12038-2 0  9993
2 69172  53.1595 145.0441 0000788 109.8991 153.1794 15.49273391  5801
STARLINK-37461          
1 69173U 26111AB  26169.65348219  .00028889  00000+0  52518-3 0  9997
2 69173  53.1602 146.4070 0001186  98.5657 261.5487 15.49329860  4467
STARLINK-37333          
1 69174U 26111AC  26169.75002315  .00067798  00000+0  12182-2 0  9997
2 69174  53.1605 144.7494 0000544  90.9724 318.8592 15.49268503  5808
STARLINK-37385          
1 69175U 26111AD  26169.32326587  .00024341  00000+0  44406-3 0  9993
2 69175  53.1603 147.9009 0000664  91.4846 268.6239 15.49327202  4416
STARLINK-37414          
1 69176U 26111AE  26169.75002315  .00072281  00000+0  12974-2 0  9991
2 69176  53.1601 144.5548 0001447 111.0916  33.9524 15.49269938  5808
STRIX-7                 
1 69177U 26112A   26169.50305551  .00001527  00000+0  13367-3 0  9997
2 69177  44.9069 185.5380 0023152  54.7276 305.5757 15.01439567  4072
SHENZHOU-23 (SZ-23)     
1 69180U 26113A   26169.57665716  .00018077  00000+0  21350-3 0  9990
2 69180  41.4698 313.5456 0007383  89.2734 270.8951 15.60863218293645
STARLINK-37380          
1 69182U 26114A   26169.61284640  .00166539  00000+0  94269-3 0  9997
2 69182  53.1571 195.3937 0000890  47.2064 312.9033 15.78095526  4998
STARLINK-37089          
1 69183U 26114B   26169.61191325  .00155849  00000+0  88384-3 0  9998
2 69183  53.1579 195.3878 0000998  50.1717 309.9392 15.78087761  4994
STARLINK-37428          
1 69184U 26114C   26169.35717183  .00166236  00000+0  94057-3 0  9992
2 69184  53.1570 196.6431 0001559  92.1735 267.9465 15.78105937  4951
