OBJECT_NAME,OBJECT_ID,EPOCH,MEAN_MOTION,ECCENTRICITY,INCLINATION,RA_OF_ASC_NODE,ARG_OF_PERICENTER,MEAN_ANOMALY,EPHEMERIS_TYPE,CLASSIFICATION_TYPE,NORAD_CAT_ID,ELEMENT_SET_NO,REV_AT_EPOCH,BSTAR,MEAN_MOTION_DOT,MEAN_MOTION_DDOT
STARLINK-37374,2026-111F,2026-06-18T07:43:44.402880,15.49323601,.0000777,53.1603,147.8959,95.2301,264.8797,0,U,69153,999,441,.51376E-3,.28243E-3,0
STARLINK-37235,2026-111G,2026-06-18T15:59:00.640896,15.49341218,.0001232,53.1607,146.4923,90.2846,269.8304,0,U,69154,999,446,.77114E-3,.42723E-3,0
STARLINK-37329,2026-111H,2026-06-18T18:00:02.000160,15.49614661,.0001508,53.1604,144.4110,76.3070,141.2074,0,U,69155,999,580,-.94895E-2,-.501154E-2,0
STARLINK-37345,2026-111J,2026-06-18T18:00:02.000160,15.51840284,.0001449,53.1602,144.3299,107.4801,150.1234,0,U,69156,999,580,-.47024E-1,-.2534947E-1,0
STARLINK-37353,2026-111K,2026-06-18T18:00:02.000160,15.52231795,.0001356,53.1599,144.3169,109.6671,154.3732,0,U,69157,999,580,-.46213E-1,-.2527722E-1,0
STARLINK-37363,2026-111L,2026-06-18T18:00:02.000160,15.52532402,.0002019,53.1606,144.3225,102.4760,158.1040,0,U,69158,999,580,-.31088E-1,-.1731031E-1,0
STARLINK-37343,2026-111M,2026-06-18T07:43:56.567136,15.49297321,.0001478,53.1602,147.8935,83.5505,276.5673,0,U,69159,999,441,.10867E-2,.60434E-3,0
STARLINK-37328,2026-111N,2026-06-18T18:00:02.000160,15.52617590,.0001637,53.1602,144.2733,95.9189,189.5209,0,U,69160,999,580,-.35938E-1,-.2010178E-1,0
STARLINK-37311,2026-111P,2026-06-18T18:00:02.000160,15.55800289,.0001279,53.1592,144.3174,104.4603,159.4927,0,U,69161,999,580,-.39866E-1,-.2442818E-1,0
STARLINK-36286,2026-111Q,2026-06-18T18:00:02.000160,15.49265374,.0001887,53.1603,144.7557,111.4831,295.8928,0,U,69162,999,580,.14876E-2,.83046E-3,0
STARLINK-37196,2026-111R,2026-06-18T18:00:02.000160,15.56955230,.0001283,53.1594,144.3097,109.4038,158.3059,0,U,69163,999,580,-.38953E-1,-.2486026E-1,0
STARLINK-36288,2026-111S,2026-06-18T18:00:02.000160,15.49279467,.0000909,53.1604,144.7263,119.9777,301.8661,0,U,69164,999,580,.14437E-2,.80595E-3,0
STARLINK-37445,2026-111T,2026-06-18T18:00:02.000160,15.49300320,.0000656,53.1603,144.8302,70.3125,300.1843,0,U,69165,999,580,.1239E-2,.69051E-3,0
STARLINK-37491,2026-111U,2026-06-18T18:00:02.000160,15.49779907,.0000786,53.1604,144.4914,57.9725,119.6106,0,U,69166,999,580,-.13861E-1,-.725382E-2,0
STARLINK-37474,2026-111V,2026-06-18T18:00:02.000160,15.57464486,.0001094,53.1598,144.3046,106.4587,163.3320,0,U,69167,999,580,-.19133E-1,-.1296701E-1,0
STARLINK-37469,2026-111W,2026-06-18T15:52:42.165696,15.49323071,.0001645,53.1598,146.4588,103.5750,256.5442,0,U,69168,999,446,.39082E-3,.21358E-3,0
STARLINK-37515,2026-111X,2026-06-18T18:00:02.000160,15.49270577,.0000873,53.1603,144.5827,98.4106,33.9176,0,U,69169,999,580,.12571E-2,.69999E-3,0
STARLINK-37437,2026-111Y,2026-06-18T18:00:02.000160,15.49823702,.000103,53.1604,144.3942,31.6918,193.3666,0,U,69170,999,580,-.16512E-1,-.853445E-2,0
STARLINK-37392,2026-111Z,2026-06-18T18:00:02.000160,15.51362958,.0000964,53.1604,144.4829,107.2879,73.6062,0,U,69171,999,580,-.33067E-1,-.1760574E-1,0
STARLINK-37472,2026-111AA,2026-06-18T18:00:02.000160,15.49273391,.0000788,53.1595,145.0441,109.8991,153.1794,0,U,69172,999,580,.12038E-2,.66995E-3,0
STARLINK-37461,2026-111AB,2026-06-18T15:41:00.861216,15.49329860,.0001186,53.1602,146.4070,98.5657,261.5487,0,U,69173,999,446,.52518E-3,.28889E-3,0
STARLINK-37333,2026-111AC,2026-06-18T18:00:02.000160,15.49268503,.0000544,53.1605,144.7494,90.9724,318.8592,0,U,69174,999,580,.12182E-2,.67798E-3,0
STARLINK-37385,2026-111AD,2026-06-18T07:45:30.171168,15.49327202,.0000664,53.1603,147.9009,91.4846,268.6239,0,U,69175,999,441,.44406E-3,.24341E-3,0
STARLINK-37414,2026-111AE,2026-06-18T18:00:02.000160,15.49269938,.0001447,53.1601,144.5548,111.0916,33.9524,0,U,69176,999,580,.12974E-2,.72281E-3,0
STRIX-7,2026-112A,2026-06-18T12:04:23.996064,15.01439567,.0023152,44.9069,185.5380,54.7276,305.5757,0,U,69177,999,407,.13367E-3,.1527E-4,0
SHENZHOU-23 (SZ-23),2026-113A,2026-06-18T13:50:23.178624,15.60863218,.0007383,41.4698,313.5456,89.2734,270.8951,0,U,69180,999,29364,.21350369E-3,.18077E-3,0
STARLINK-37380,2026-114A,2026-06-18T14:42:29.928960,15.78095526,.000089,53.1571,195.3937,47.2064,312.9033,0,U,69182,999,499,.94269E-3,.166539E-2,0
STARLINK-37089,2026-114B,2026-06-18T14:41:09.304800,15.78087761,.0000998,53.1579,195.3878,50.1717,309.9392,0,U,69183,999,499,.88384E-3,.155849E-2,0
STARLINK-37428,2026-114C,2026-06-18T08:34:19.646112,15.78105937,.0001559,53.1570,196.6431,92.1735,267.9465,0,U,69184,999,495,.94057E-3,.166236E-2,0
